{
  "type": "FeatureCollection",
  "features": [
    {
      "type": "Feature",
      "properties": {
        "norad_id": 64751,
        "name": "PROGRESS-MS 31",
        "group": "stations",
        "lat": -20.099673527230035,
        "lon": 74.8954652652576,
        "alt_km": 418.9405305577766,
        "timestamp": "2025-12-22T23:36:19.444890+00:00",
        "meta_object_name": "PROGRESS-MS 31",
        "meta_object_id": "2025-146A",
        "meta_epoch": "2025-12-22T12:53:01.598784",
        "meta_mean_motion": 15.49728746,
        "meta_eccentricity": 0.00031539,
        "meta_inclination": 51.6324,
        "meta_ra_of_asc_node": 93.9618,
        "meta_arg_of_pericenter": 285.9755,
        "meta_mean_anomaly": 74.0886,
        "meta_ephemeris_type": 0,
        "meta_classification_type": "U",
        "meta_norad_cat_id": 64751,
        "meta_element_set_no": 999,
        "meta_rev_at_epoch": 675,
        "meta_bstar": 0.00021249665,
        "meta_mean_motion_dot": 0.00011576,
        "meta_mean_motion_ddot": 0,
        "tle_line1": "1 64751U 25146A   25356.53682406  .00011576  00000+0  21250-3 0  9998",
        "tle_line2": "2 64751  51.6324  93.9618 0003153 285.9755  74.0886 15.49728746  6759"
      },
      "geometry": {
        "type": "Point",
        "coordinates": [
          74.8954652652576,
          -20.099673527230035
        ]
      }
    },
    {
      "type": "Feature",
      "properties": {
        "norad_id": 64786,
        "name": "TIANZHOU-9",
        "group": "stations",
        "lat": 33.74482300150003,
        "lon": 85.34341379879861,
        "alt_km": 377.99062693308315,
        "timestamp": "2025-12-22T23:36:19.444900+00:00",
        "meta_object_name": "TIANZHOU-9",
        "meta_object_id": "2025-149A",
        "meta_epoch": "2025-12-22T13:51:36.698976",
        "meta_mean_motion": 15.59570921,
        "meta_eccentricity": 0.00078575,
        "meta_inclination": 41.4686,
        "meta_ra_of_asc_node": 316.9649,
        "meta_arg_of_pericenter": 117.6887,
        "meta_mean_anomaly": 242.475,
        "meta_ephemeris_type": 0,
        "meta_classification_type": "U",
        "meta_norad_cat_id": 64786,
        "meta_element_set_no": 999,
        "meta_rev_at_epoch": 25530,
        "meta_bstar": 0.00022463103,
        "meta_mean_motion_dot": 0.00018108,
        "meta_mean_motion_ddot": 0,
        "tle_line1": "1 64786U 25149A   25356.57750809  .00018108  00000+0  22463-3 0  9991",
        "tle_line2": "2 64786  41.4686 316.9649 0007857 117.6887 242.4750 15.59570921255308"
      },
      "geometry": {
        "type": "Point",
        "coordinates": [
          85.34341379879861,
          33.74482300150003
        ]
      }
    },
    {
      "type": "Feature",
      "properties": {
        "norad_id": 65077,
        "name": "CREW DRAGON 11",
        "group": "stations",
        "lat": -20.099672558012468,
        "lon": 74.89546617385557,
        "alt_km": 418.94053050926595,
        "timestamp": "2025-12-22T23:36:19.444910+00:00",
        "meta_object_name": "CREW DRAGON 11",
        "meta_object_id": "2025-166A",
        "meta_epoch": "2025-12-22T12:53:01.598784",
        "meta_mean_motion": 15.49728746,
        "meta_eccentricity": 0.00031539,
        "meta_inclination": 51.6324,
        "meta_ra_of_asc_node": 93.9618,
        "meta_arg_of_pericenter": 285.9755,
        "meta_mean_anomaly": 74.0886,
        "meta_ephemeris_type": 0,
        "meta_classification_type": "U",
        "meta_norad_cat_id": 65077,
        "meta_element_set_no": 999,
        "meta_rev_at_epoch": 214,
        "meta_bstar": 0.00021249665,
        "meta_mean_motion_dot": 0.00011576,
        "meta_mean_motion_ddot": 0,
        "tle_line1": "1 65077U 25166A   25356.53682406  .00011576  00000+0  21250-3 0  9992",
        "tle_line2": "2 65077  51.6324  93.9618 0003153 285.9755  74.0886 15.49728746  2140"
      },
      "geometry": {
        "type": "Point",
        "coordinates": [
          74.89546617385557,
          -20.099672558012468
        ]
      }
    },
    {
      "type": "Feature",
      "properties": {
        "norad_id": 65304,
        "name": "DRAGON CRS-33",
        "group": "stations",
        "lat": -20.099672073403518,
        "lon": 74.8954666281547,
        "alt_km": 418.9405304850079,
        "timestamp": "2025-12-22T23:36:19.444920+00:00",
        "meta_object_name": "DRAGON CRS-33",
        "meta_object_id": "2025-186A",
        "meta_epoch": "2025-12-22T12:53:01.598784",
        "meta_mean_motion": 15.49728746,
        "meta_eccentricity": 0.00031539,
        "meta_inclination": 51.6324,
        "meta_ra_of_asc_node": 93.9618,
        "meta_arg_of_pericenter": 285.9755,
        "meta_mean_anomaly": 74.0886,
        "meta_ephemeris_type": 0,
        "meta_classification_type": "U",
        "meta_norad_cat_id": 65304,
        "meta_element_set_no": 999,
        "meta_rev_at_epoch": 11,
        "meta_bstar": 0.00021249665,
        "meta_mean_motion_dot": 0.00011576,
        "meta_mean_motion_ddot": 0,
        "tle_line1": "1 65304U 25186A   25356.53682406  .00011576  00000+0  21250-3 0  9997",
        "tle_line2": "2 65304  51.6324  93.9618 0003153 285.9755  74.0886 15.49728746   118"
      },
      "geometry": {
        "type": "Point",
        "coordinates": [
          74.8954666281547,
          -20.099672073403518
        ]
      }
    },
    {
      "type": "Feature",
      "properties": {
        "norad_id": 65586,
        "name": "PROGRESS-MS 32",
        "group": "stations",
        "lat": -20.099671588794575,
        "lon": 74.89546708245383,
        "alt_km": 418.9405304607526,
        "timestamp": "2025-12-22T23:36:19.444930+00:00",
        "meta_object_name": "PROGRESS-MS 32",
        "meta_object_id": "2025-204A",
        "meta_epoch": "2025-12-22T12:53:01.598784",
        "meta_mean_motion": 15.49728746,
        "meta_eccentricity": 0.00031539,
        "meta_inclination": 51.6324,
        "meta_ra_of_asc_node": 93.9618,
        "meta_arg_of_pericenter": 285.9755,
        "meta_mean_anomaly": 74.0886,
        "meta_ephemeris_type": 0,
        "meta_classification_type": "U",
        "meta_norad_cat_id": 65586,
        "meta_element_set_no": 999,
        "meta_rev_at_epoch": 27,
        "meta_bstar": 0.00021249665,
        "meta_mean_motion_dot": 0.00011576,
        "meta_mean_motion_ddot": 0,
        "tle_line1": "1 65586U 25204A   25356.53682406  .00011576  00000+0  21250-3 0  9990",
        "tle_line2": "2 65586  51.6324  93.9618 0003153 285.9755  74.0886 15.49728746   277"
      },
      "geometry": {
        "type": "Point",
        "coordinates": [
          74.89546708245383,
          -20.099671588794575
        ]
      }
    },
    {
      "type": "Feature",
      "properties": {
        "norad_id": 65616,
        "name": "CYGNUS NG-23",
        "group": "stations",
        "lat": -20.09967100726385,
        "lon": 74.89546762761276,
        "alt_km": 418.9405304316424,
        "timestamp": "2025-12-22T23:36:19.444942+00:00",
        "meta_object_name": "CYGNUS NG-23",
        "meta_object_id": "2025-208A",
        "meta_epoch": "2025-12-22T12:53:01.598784",
        "meta_mean_motion": 15.49728746,
        "meta_eccentricity": 0.00031539,
        "meta_inclination": 51.6324,
        "meta_ra_of_asc_node": 93.9618,
        "meta_arg_of_pericenter": 285.9755,
        "meta_mean_anomaly": 74.0886,
        "meta_ephemeris_type": 0,
        "meta_classification_type": "U",
        "meta_norad_cat_id": 65616,
        "meta_element_set_no": 999,
        "meta_rev_at_epoch": 22,
        "meta_bstar": 0.00021249665,
        "meta_mean_motion_dot": 0.00011576,
        "meta_mean_motion_ddot": 0,
        "tle_line1": "1 65616U 25208A   25356.53682406  .00011576  00000+0  21250-3 0  9998",
        "tle_line2": "2 65616  51.6324  93.9618 0003153 285.9755  74.0886 15.49728746   226"
      },
      "geometry": {
        "type": "Point",
        "coordinates": [
          74.89546762761276,
          -20.09967100726385
        ]
      }
    },
    {
      "type": "Feature",
      "properties": {
        "norad_id": 65729,
        "name": "DRAGONFLY",
        "group": "stations",
        "lat": 43.672594048224084,
        "lon": -145.98891288049143,
        "alt_km": 341.5709305281098,
        "timestamp": "2025-12-22T23:36:19.444952+00:00",
        "meta_object_name": "DRAGONFLY",
        "meta_object_id": "1998-067XH",
        "meta_epoch": "2025-12-22T12:26:54.476448",
        "meta_mean_motion": 15.75175464,
        "meta_eccentricity": 0.00077918,
        "meta_inclination": 51.6245,
        "meta_ra_of_asc_node": 85.5681,
        "meta_arg_of_pericenter": 337.4255,
        "meta_mean_anomaly": 22.6401,
        "meta_ephemeris_type": 0,
        "meta_classification_type": "U",
        "meta_norad_cat_id": 65729,
        "meta_element_set_no": 999,
        "meta_rev_at_epoch": 1470,
        "meta_bstar": 0.001313189,
        "meta_mean_motion_dot": 0.00205699,
        "meta_mean_motion_ddot": 0,
        "tle_line1": "1 65729U 98067XH  25356.51868607  .00205699  00000+0  13132-2 0  9993",
        "tle_line2": "2 65729  51.6245  85.5681 0007791 337.4255  22.6401 15.75175464 14702"
      },
      "geometry": {
        "type": "Point",
        "coordinates": [
          -145.98891288049143,
          43.672594048224084
        ]
      }
    }
  ]
}